COMMENT,ORIGINATOR,NORAD_CAT_ID,OBJECT_NAME,OBJECT_TYPE,CLASSIFICATION_TYPE,INTLDES,EPOCH,EPOCH_MICROSECONDS,MEAN_MOTION,ECCENTRICITY,INCLINATION,RA_OF_ASC_NODE,ARG_OF_PERICENTER,MEAN_ANOMALY,EPHEMERIS_TYPE,ELEMENT_SET_NO,REV_AT_EPOCH,BSTAR,MEAN_MOTION_DOT,MEAN_MOTION_DDOT,FILE,TLE_LINE0,TLE_LINE1,TLE_LINE2,OBJECT_ID,OBJECT_NUMBER,SEMIMAJOR_AXIS,PERIOD,APOGEE,PERIGEE,DECAYED
"GENERATED VIA SPACETRACK.ORG API","18 SPCS","48888","SPACEBEE-103","PAYLOAD","U","21059K","2022-06-24 21:39:25","726176","15.16012254","0.0009844","97.5556","305.5055","83.9357","276.2997","0","999","5506","0.00035976","0.00006854","0","3501798","0 SPACEBEE-103","1 48888U 21059K   22175.90238109  .00006854  00000-0  35976-3 0  9998","2 48888  97.5556 305.5055 0009844  83.9357 276.2997 15.16012254 55063","2021-059K","48888","6896.044","94.986","524.698","511.121","0"
"GENERATED VIA SPACETRACK.ORG API","18 SPCS","48888","SPACEBEE-103","PAYLOAD","U","21059K","2022-06-25 08:44:45","91392","15.16019586","0.0009844","97.5557","305.9653","82.5684","277.6666","0","999","5513","0.00038154","0.00007275","0","3502243","0 SPACEBEE-103","1 48888U 21059K   22176.36441078  .00007275  00000-0  38154-3 0  9999","2 48888  97.5557 305.9653 0009844  82.5684 277.6666 15.16019586 55131","2021-059K","48888","6896.022","94.986","524.675","511.098","0"
"GENERATED VIA SPACETRACK.ORG API","18 SPCS","48888","SPACEBEE-103","PAYLOAD","U","21059K","2022-06-25 08:44:45","91392","15.16019586","0.0009844","97.5557","305.9653","82.5684","277.6666","0","999","5513","0.00038154","0.00007275","0","3502315","0 SPACEBEE-103","1 48888U 21059K   22176.36441078  .00007275  00000-0  38154-3 0  9999","2 48888  97.5557 305.9653 0009844  82.5684 277.6666 15.16019586 55131","2021-059K","48888","6896.022","94.986","524.675","511.098","0"
"GENERATED VIA SPACETRACK.ORG API","18 SPCS","48888","SPACEBEE-103","PAYLOAD","U","21059K","2022-06-25 21:25:06","980160","15.16027652","0.0009861","97.5559","306.4908","81.0609","279.174","0","999","5521","0.00038762","0.00007394","0","3502557","0 SPACEBEE-103","1 48888U 21059K   22176.89244190  .00007394  00000-0  38762-3 0  9990","2 48888  97.5559 306.4908 0009861  81.0609 279.1740 15.16027652 55214","2021-059K","48888","6895.997","94.985","524.663","511.062","0"
"GENERATED VIA SPACETRACK.ORG API","18 SPCS","48888","SPACEBEE-103","PAYLOAD","U","21059K","2022-06-26 08:30:25","861536","15.16038276","0.0009858","97.556","306.9507","79.5126","280.7217","0","999","5528","0.00048108","0.00009198","0","3503181","0 SPACEBEE-103","1 48888U 21059K   22177.35446599  .00009198  00000-0  48108-3 0  9998","2 48888  97.5560 306.9507 0009858  79.5126 280.7217 15.16038276 55286","2021-059K","48888","6895.965","94.984","524.628","511.032","0"
"GENERATED VIA SPACETRACK.ORG API","18 SPCS","48888","SPACEBEE-103","PAYLOAD","U","21059K","2022-06-26 19:35:44","593440","15.16043366","0.0009835","97.5563","307.4105","78.1879","282.0457","0","999","5535","0.00039688","0.00007575","0","3503296","0 SPACEBEE-103","1 48888U 21059K   22177.81648835  .00007575  00000-0  39688-3 0  9996","2 48888  97.5563 307.4105 0009835  78.1879 282.0457 15.16043366 55359","2021-059K","48888","6895.950","94.984","524.597","511.033","0"
"GENERATED VIA SPACETRACK.ORG API","18 SPCS","48888","SPACEBEE-103","PAYLOAD","U","21059K","2022-06-26 21:10:47","247456","15.16044381","0.0009832","97.5563","307.4762","77.9992","282.2342","0","999","5536","0.00039375","0.00007515","0","3503441","0 SPACEBEE-103","1 48888U 21059K   22177.88249129  .00007515  00000-0  39375-3 0  9993","2 48888  97.5563 307.4762 0009832  77.9992 282.2342 15.16044381 55362","2021-059K","48888","6895.947","94.984","524.592","511.032","0"
"GENERATED VIA SPACETRACK.ORG API","18 SPCS","48888","SPACEBEE-103","PAYLOAD","U","21059K","2022-06-27 08:16:05","758176","15.16051013","0.0009813","97.5564","307.936","76.5797","283.6529","0","999","5543","0.00037376","0.00007131","0","3503902","0 SPACEBEE-103","1 48888U 21059K   22178.34451109  .00007131  00000-0  37376-3 0  9991","2 48888  97.5564 307.9360 0009813  76.5797 283.6529 15.16051013 55439","2021-059K","48888","6895.927","94.984","524.559","511.025","0"
"GENERATED VIA SPACETRACK.ORG API","18 SPCS","48888","SPACEBEE-103","PAYLOAD","U","21059K","2022-06-27 20:56:26","713824","15.16055771","0.0009777","97.5565","308.4616","74.9873","285.2441","0","999","5551","0.0002686","0.00005105","0","3504144","0 SPACEBEE-103","1 48888U 21059K   22178.87253141  .00005105  00000-0  26860-3 0  9990","2 48888  97.5565 308.4616 0009777  74.9873 285.2441 15.16055771 55511","2021-059K","48888","6895.912","94.983","524.519","511.035","0"
"GENERATED VIA SPACETRACK.ORG API","18 SPCS","48888","SPACEBEE-103","PAYLOAD","U","21059K","2022-06-28 03:16:37","123392","15.160583","0.0009749","97.5565","308.7243","74.1595","286.0712","0","999","5555","0.00024919","0.00004731","0","3504349","0 SPACEBEE-103","1 48888U 21059K   22179.13654078  .00004731  00000-0  24919-3 0  9991","2 48888  97.5565 308.7243 0009749  74.1595 286.0712 15.16058300 55557","2021-059K","48888","6895.905","94.983","524.492","511.047","0"
"GENERATED VIA SPACETRACK.ORG API","18 SPCS","48888","SPACEBEE-103","PAYLOAD","U","21059K","2022-06-28 08:01:44","914368","15.16060383","0.0009723","97.5566","308.9214","73.5484","286.6816","0","999","5558","0.00023817","0.00004519","0","3504789","0 SPACEBEE-103","1 48888U 21059K   22179.33454762  .00004519  00000-0  23817-3 0  9991","2 48888  97.5566 308.9214 0009723  73.5484 286.6816 15.16060383 55588","2021-059K","48888","6895.898","94.983","524.468","511.058","0"
"GENERATED VIA SPACETRACK.ORG API","18 SPCS","48888","SPACEBEE-103","PAYLOAD","U","21059K","2022-06-28 19:07:02","987904","15.16065635","0.0009676","97.5567","309.3812","72.2687","287.96","0","999","5565","0.00023996","0.00004554","0","3504942","0 SPACEBEE-103","1 48888U 21059K   22179.79656236  .00004554  00000-0  23996-3 0  9998","2 48888  97.5567 309.3812 0009676  72.2687 287.9600 15.16065635 55654","2021-059K","48888","6895.882","94.983","524.420","511.075","0"
"GENERATED VIA SPACETRACK.ORG API","18 SPCS","48888","SPACEBEE-103","PAYLOAD","U","21059K","2022-06-29 07:47:23","534016","15.16070871","0.0009641","97.5569","309.9068","70.64","289.5874","0","999","5573","0.00025258","0.00004798","0","3505444","0 SPACEBEE-103","1 48888U 21059K   22180.32457794  .00004798  00000-0  25258-3 0  9990","2 48888  97.5569 309.9068 0009641  70.6400 289.5874 15.16070871 55730","2021-059K","48888","6895.866","94.982","524.380","511.083","0"
"GENERATED VIA SPACETRACK.ORG API","18 SPCS","48888","SPACEBEE-103","PAYLOAD","U","21059K","2022-06-29 07:47:23","534016","15.16070871","0.0009641","97.5569","309.9068","70.64","289.5874","0","999","5573","0.00025258","0.00004798","0","3505485","0 SPACEBEE-103","1 48888U 21059K   22180.32457794  .00004798  00000-0  25258-3 0  9990","2 48888  97.5569 309.9068 0009641  70.6400 289.5874 15.16070871 55730","2021-059K","48888","6895.866","94.982","524.380","511.083","0"
"GENERATED VIA SPACETRACK.ORG API","18 SPCS","48888","SPACEBEE-103","PAYLOAD","U","21059K","2022-06-29 20:27:43","931520","15.1607519","0.0009572","97.5571","310.4323","69.1404","291.0853","0","999","5581","0.00024118","0.00004579","0","3505610","0 SPACEBEE-103","1 48888U 21059K   22180.85259180  .00004579  00000-0  24118-3 0  9998","2 48888  97.5571 310.4323 0009572  69.1404 291.0853 15.16075190 55817","2021-059K","48888","6895.853","94.982","524.319","511.118","0"
"GENERATED VIA SPACETRACK.ORG API","18 SPCS","48888","SPACEBEE-103","PAYLOAD","U","21059K","2022-06-30 07:33:01","658592","15.16078864","0.0009561","97.5573","310.8923","67.6851","292.5394","0","999","5588","0.00022415","0.00004251","0","3505769","0 SPACEBEE-103","1 48888U 21059K   22181.31460253  .00004251  00000-0  22415-3 0  9990","2 48888  97.5573 310.8923 0009561  67.6851 292.5394 15.16078864 55880","2021-059K","48888","6895.842","94.982","524.300","511.114","0"
"GENERATED VIA SPACETRACK.ORG API","18 SPCS","48888","SPACEBEE-103","PAYLOAD","U","21059K","2022-06-30 20:13:21","773568","15.16083949","0.0009571","97.5574","311.418","66.0229","294.2005","0","999","5596","0.0002264","0.00004295","0","3505946","0 SPACEBEE-103","1 48888U 21059K   22181.84261312  .00004295  00000-0  22640-3 0  9991","2 48888  97.5574 311.4180 0009571  66.0229 294.2005 15.16083949 55963","2021-059K","48888","6895.827","94.982","524.292","511.092","0"
"GENERATED VIA SPACETRACK.ORG API","18 SPCS","48888","SPACEBEE-103","PAYLOAD","U","21059K","2022-07-01 07:18:39","244032","15.16088491","0.0009559","97.5575","311.878","64.6502","295.5719","0","999","5603","0.0002327","0.00004417","0","3506285","0 SPACEBEE-103","1 48888U 21059K   22182.30462088  .00004417  00000-0  23270-3 0  9992","2 48888  97.5575 311.8780 0009559  64.6502 295.5719 15.16088491 56030","2021-059K","48888","6895.813","94.981","524.270","511.086","0"
"GENERATED VIA SPACETRACK.ORG API","18 SPCS","48888","SPACEBEE-103","PAYLOAD","U","21059K","2022-07-01 21:34:01","549056","15.16093549","0.0009537","97.5577","312.4694","62.8938","297.3267","0","999","5612","0.00021939","0.00004161","0","3506492","0 SPACEBEE-103","1 48888U 21059K   22182.89862904  .00004161  00000-0  21939-3 0  9993","2 48888  97.5577 312.4694 0009537  62.8938 297.3267 15.16093549 56120","2021-059K","48888","6895.798","94.981","524.239","511.086","0"
"GENERATED VIA SPACETRACK.ORG API","18 SPCS","48888","SPACEBEE-103","PAYLOAD","U","21059K","2022-07-01 21:34:01","549056","15.16093549","0.0009537","97.5577","312.4694","62.8938","297.3267","0","999","5612","0.00021939","0.00004161","0","3506502","0 SPACEBEE-103","1 48888U 21059K   22182.89862904  .00004161  00000-0  21939-3 0  9993","2 48888  97.5577 312.4694 0009537  62.8938 297.3267 15.16093549 56120","2021-059K","48888","6895.798","94.981","524.239","511.086","0"
